{"type": "FeatureCollection", "features": [ {"type": "Feature", "properties": {"norad_id": 40664, "name": "SKY MEXICO-1", "group": "intelsat", "lat": 0.023214851866441958, "lon": -12.783536434752051, "alt_km": 35782.11047632822, "timestamp": "2025-12-15T22:44:28.591697+00:00", "meta": {"OBJECT_NAME": "SKY MEXICO-1", "OBJECT_ID": "2015-026B", "EPOCH": "2025-12-15T06:09:57.214080", "MEAN_MOTION": 1.00271913, "ECCENTRICITY": 0.00024281, "INCLINATION": 0.0224, "RA_OF_ASC_NODE": 295.835, "ARG_OF_PERICENTER": 344.414, "MEAN_ANOMALY": 177.6416, "EPHEMERIS_TYPE": 0, "CLASSIFICATION_TYPE": "U", "NORAD_CAT_ID": 40664, "ELEMENT_SET_NO": 999, "REV_AT_EPOCH": 3861, "BSTAR": 0, "MEAN_MOTION_DOT": -2.14e-06, "MEAN_MOTION_DDOT": 0}, "tle": {"line1": "1 40664U 15026B   25349.25691220 -.00000214  00000+0  00000+0 0  9990", "line2": "2 40664   0.0224 295.8350 0002428 344.4140 177.6416  1.00271913 38612"}}, "geometry": {"type": "Point", "coordinates": [-12.783536434752051, 0.023214851866441958]}}, {"type": "Feature", "properties": {"norad_id": 40874, "name": "INTELSAT 34 (IS-34)", "group": "intelsat", "lat": 0.024559275897567852, "lon": 10.449359683117047, "alt_km": 35788.41915490328, "timestamp": "2025-12-15T22:44:28.591709+00:00", "meta": {"OBJECT_NAME": "INTELSAT 34 (IS-34)", "OBJECT_ID": "2015-039A", "EPOCH": "2025-12-15T04:46:38.428896", "MEAN_MOTION": 1.00271545, "ECCENTRICITY": 6.597e-05, "INCLINATION": 0.0124, "RA_OF_ASC_NODE": 311.7695, "ARG_OF_PERICENTER": 201.039, "MEAN_ANOMALY": 307.4611, "EPHEMERIS_TYPE": 0, "CLASSIFICATION_TYPE": "U", "NORAD_CAT_ID": 40874, "ELEMENT_SET_NO": 999, "REV_AT_EPOCH": 3778, "BSTAR": 0, "MEAN_MOTION_DOT": -2.65e-06, "MEAN_MOTION_DDOT": 0}, "tle": {"line1": "1 40874U 15039A   25349.19905589 -.00000265  00000+0  00000+0 0  9992", "line2": "2 40874   0.0124 311.7695 0000659 201.0390 307.4611  1.00271545 37781"}}, "geometry": {"type": "Point", "coordinates": [10.449359683117047, 0.024559275897567852]}}, {"type": "Feature", "properties": {"norad_id": 41581, "name": "INTELSAT 31 (IS-31)", "group": "intelsat", "lat": 0.014497883473974646, "lon": -29.0776676545545, "alt_km": 35790.30512934225, "timestamp": "2025-12-15T22:44:28.591721+00:00", "meta": {"OBJECT_NAME": "INTELSAT 31 (IS-31)", "OBJECT_ID": "2016-035A", "EPOCH": "2025-12-14T23:14:19.767840", "MEAN_MOTION": 1.00272368, "ECCENTRICITY": 0.00019442, "INCLINATION": 0.0208, "RA_OF_ASC_NODE": 270.2777, "ARG_OF_PERICENTER": 298.2472, "MEAN_ANOMALY": 128.886, "EPHEMERIS_TYPE": 0, "CLASSIFICATION_TYPE": "U", "NORAD_CAT_ID": 41581, "ELEMENT_SET_NO": 999, "REV_AT_EPOCH": 3483, "BSTAR": 0, "MEAN_MOTION_DOT": -1.31e-06, "MEAN_MOTION_DDOT": 0}, "tle": {"line1": "1 41581U 16035A   25348.96828435 -.00000131  00000+0  00000+0 0  9995", "line2": "2 41581   0.0208 270.2777 0001944 298.2472 128.8860  1.00272368 34835"}}, "geometry": {"type": "Point", "coordinates": [-29.0776676545545, 0.014497883473974646]}}, {"type": "Feature", "properties": {"norad_id": 41747, "name": "INTELSAT 36 (IS-36)", "group": "intelsat", "lat": 0.01624410532769951, "lon": 134.4412394262066, "alt_km": 35791.010114005614, "timestamp": "2025-12-15T22:44:28.591733+00:00", "meta": {"OBJECT_NAME": "INTELSAT 36 (IS-36)", "OBJECT_ID": "2016-053A", "EPOCH": "2025-12-15T05:09:03.048768", "MEAN_MOTION": 1.00270454, "ECCENTRICITY": 0.00011093, "INCLINATION": 0.0109, "RA_OF_ASC_NODE": 348.2534, "ARG_OF_PERICENTER": 336.9444, "MEAN_ANOMALY": 264.677, "EPHEMERIS_TYPE": 0, "CLASSIFICATION_TYPE": "U", "NORAD_CAT_ID": 41747, "ELEMENT_SET_NO": 999, "REV_AT_EPOCH": 3410, "BSTAR": 0, "MEAN_MOTION_DOT": -3e-08, "MEAN_MOTION_DDOT": 0}, "tle": {"line1": "1 41747U 16053A   25349.21461862 -.00000003  00000+0  00000+0 0  9993", "line2": "2 41747   0.0109 348.2534 0001109 336.9444 264.6770  1.00270454 34101"}}, "geometry": {"type": "Point", "coordinates": [134.4412394262066, 0.01624410532769951]}}, {"type": "Feature", "properties": {"norad_id": 41945, "name": "INTELSAT 32E (IS-32E)", "group": "intelsat", "lat": -0.006010874904154471, "lon": 22.773868514708337, "alt_km": 35783.99031948466, "timestamp": "2025-12-15T22:44:28.591745+00:00", "meta": {"OBJECT_NAME": "INTELSAT 32E (IS-32E)", "OBJECT_ID": "2017-007B", "EPOCH": "2025-12-15T04:37:21.084096", "MEAN_MOTION": 1.0027185, "ECCENTRICITY": 5.122e-05, "INCLINATION": 0.0326, "RA_OF_ASC_NODE": 79.2856, "ARG_OF_PERICENTER": 306.1943, "MEAN_ANOMALY": 84.7803, "EPHEMERIS_TYPE": 0, "CLASSIFICATION_TYPE": "U", "NORAD_CAT_ID": 41945, "ELEMENT_SET_NO": 999, "REV_AT_EPOCH": 3238, "BSTAR": 0, "MEAN_MOTION_DOT": -2.48e-06, "MEAN_MOTION_DDOT": 0}, "tle": {"line1": "1 41945U 17007B   25349.19260514 -.00000248  00000+0  00000+0 0  9992", "line2": "2 41945   0.0326  79.2856 0000512 306.1943  84.7803  1.00271850 32387"}}, "geometry": {"type": "Point", "coordinates": [22.773868514708337, -0.006010874904154471]}}, {"type": "Feature", "properties": {"norad_id": 42818, "name": "INTELSAT 35E (IS-35E)", "group": "intelsat", "lat": 0.00972575957830225, "lon": 31.48251786487009, "alt_km": 35790.186812241205, "timestamp": "2025-12-15T22:44:28.591757+00:00", "meta": {"OBJECT_NAME": "INTELSAT 35E (IS-35E)", "OBJECT_ID": "2017-041A", "EPOCH": "2025-12-15T06:22:33.507840", "MEAN_MOTION": 1.00272747, "ECCENTRICITY": 0.00018666, "INCLINATION": 0.0008, "RA_OF_ASC_NODE": 25.8947, "ARG_OF_PERICENTER": 242.5603, "MEAN_ANOMALY": 236.8671, "EPHEMERIS_TYPE": 0, "CLASSIFICATION_TYPE": "U", "NORAD_CAT_ID": 42818, "ELEMENT_SET_NO": 999, "REV_AT_EPOCH": 3097, "BSTAR": 0, "MEAN_MOTION_DOT": -2.17e-06, "MEAN_MOTION_DDOT": 0}, "tle": {"line1": "1 42818U 17041A   25349.26566560 -.00000217  00000+0  00000+0 0  9994", "line2": "2 42818   0.0008  25.8947 0001866 242.5603 236.8671  1.00272747 30973"}}, "geometry": {"type": "Point", "coordinates": [31.48251786487009, 0.00972575957830225]}}, {"type": "Feature", "properties": {"norad_id": 42950, "name": "INTELSAT 37E (IS-37E)", "group": "intelsat", "lat": 0.04028060477245623, "lon": 47.973052184550276, "alt_km": 35797.767872811695, "timestamp": "2025-12-15T22:44:28.591769+00:00", "meta": {"OBJECT_NAME": "INTELSAT 37E (IS-37E)", "OBJECT_ID": "2017-059A", "EPOCH": "2025-12-15T06:27:10.565856", "MEAN_MOTION": 1.00271542, "ECCENTRICITY": 0.00030866, "INCLINATION": 0.0186, "RA_OF_ASC_NODE": 326.7729, "ARG_OF_PERICENTER": 288.6194, "MEAN_ANOMALY": 267.5824, "EPHEMERIS_TYPE": 0, "CLASSIFICATION_TYPE": "U", "NORAD_CAT_ID": 42950, "ELEMENT_SET_NO": 999, "REV_AT_EPOCH": 3022, "BSTAR": 0, "MEAN_MOTION_DOT": -1.2e-06, "MEAN_MOTION_DDOT": 0}, "tle": {"line1": "1 42950U 17059A   25349.26887229 -.00000120  00000+0  00000+0 0  9991", "line2": "2 42950   0.0186 326.7729 0003086 288.6194 267.5824  1.00271542 30221"}}, "geometry": {"type": "Point", "coordinates": [47.973052184550276, 0.04028060477245623]}}, {"type": "Feature", "properties": {"norad_id": 43632, "name": "AZERSPACE 2 (IS-38)", "group": "intelsat", "lat": 0.020204235112453058, "lon": 111.06149286355313, "alt_km": 35790.942666511364, "timestamp": "2025-12-15T22:44:28.591780+00:00", "meta": {"OBJECT_NAME": "AZERSPACE 2 (IS-38)", "OBJECT_ID": "2018-074A", "EPOCH": "2025-12-15T05:02:33.669888", "MEAN_MOTION": 1.00271055, "ECCENTRICITY": 0.00011938, "INCLINATION": 0.0024, "RA_OF_ASC_NODE": 355.049, "ARG_OF_PERICENTER": 276.1852, "MEAN_ANOMALY": 293.6391, "EPHEMERIS_TYPE": 0, "CLASSIFICATION_TYPE": "U", "NORAD_CAT_ID": 43632, "ELEMENT_SET_NO": 999, "REV_AT_EPOCH": 2660, "BSTAR": 0, "MEAN_MOTION_DOT": 1.57e-06, "MEAN_MOTION_DDOT": 0}, "tle": {"line1": "1 43632U 18074A   25349.21011192  .00000157  00000+0  00000+0 0  9999", "line2": "2 43632   0.0024 355.0490 0001193 276.1852 293.6391  1.00271055 26605"}}, "geometry": {"type": "Point", "coordinates": [111.06149286355313, 0.020204235112453058]}}, {"type": "Feature", "properties": {"norad_id": 43633, "name": "HORIZONS-3E", "group": "intelsat", "lat": -0.00886068356063893, "lon": -125.07443404810616, "alt_km": 35784.08293083852, "timestamp": "2025-12-15T22:44:28.591793+00:00", "meta": {"OBJECT_NAME": "HORIZONS-3E", "OBJECT_ID": "2018-074B", "EPOCH": "2025-12-15T05:37:52.787136", "MEAN_MOTION": 1.00269929, "ECCENTRICITY": 9.177e-05, "INCLINATION": 0.0461, "RA_OF_ASC_NODE": 189.5477, "ARG_OF_PERICENTER": 95.4301, "MEAN_ANOMALY": 52.6199, "EPHEMERIS_TYPE": 0, "CLASSIFICATION_TYPE": "U", "NORAD_CAT_ID": 43633, "ELEMENT_SET_NO": 999, "REV_AT_EPOCH": 2649, "BSTAR": 0, "MEAN_MOTION_DOT": -1e-07, "MEAN_MOTION_DDOT": 0}, "tle": {"line1": "1 43633U 18074B   25349.23463874 -.00000010  00000+0  00000+0 0  9999", "line2": "2 43633   0.0461 189.5477 0000917  95.4301  52.6199  1.00269929 26493"}}, "geometry": {"type": "Point", "coordinates": [-125.07443404810616, -0.00886068356063893]}}, {"type": "Feature", "properties": {"norad_id": 44333, "name": "AT&T T-16", "group": "intelsat", "lat": -0.022929060858364707, "lon": -34.90709856839001, "alt_km": 35790.52991737088, "timestamp": "2025-12-15T22:44:28.591804+00:00", "meta": {"OBJECT_NAME": "AT&T T-16", "OBJECT_ID": "2019-034A", "EPOCH": "2025-12-14T21:29:59.762112", "MEAN_MOTION": 1.00270833, "ECCENTRICITY": 9.964e-05, "INCLINATION": 0.0252, "RA_OF_ASC_NODE": 69.3394, "ARG_OF_PERICENTER": 81.8643, "MEAN_ANOMALY": 154.2461, "EPHEMERIS_TYPE": 0, "CLASSIFICATION_TYPE": "U", "NORAD_CAT_ID": 44333, "ELEMENT_SET_NO": 999, "REV_AT_EPOCH": 2378, "BSTAR": 0, "MEAN_MOTION_DOT": -9.5e-07, "MEAN_MOTION_DDOT": 0}, "tle": {"line1": "1 44333U 19034A   25348.89583058 -.00000095  00000+0  00000+0 0  9995", "line2": "2 44333   0.0252  69.3394 0000996  81.8643 154.2461  1.00270833 23783"}}, "geometry": {"type": "Point", "coordinates": [-34.90709856839001, -0.022929060858364707]}}]}